OBJECT_NAME,OBJECT_ID,EPOCH,MEAN_MOTION,ECCENTRICITY,INCLINATION,RA_OF_ASC_NODE,ARG_OF_PERICENTER,MEAN_ANOMALY,EPHEMERIS_TYPE,CLASSIFICATION_TYPE,NORAD_CAT_ID,ELEMENT_SET_NO,REV_AT_EPOCH,BSTAR,MEAN_MOTION_DOT,MEAN_MOTION_DDOT
STARLINK-37896,2026-157AD,2026-07-16T06:00:02.000160,15.95765534,.00010373,53.1589,290.2815,80.2930,29.9118,0,U,69970,999,232,-.55317274E-2,-.2274544E-1,.14437098E-2
STARLINK-37922,2026-157AE,2026-07-16T06:00:02.000160,15.95780020,.00010778,53.1589,290.2796,71.1933,39.8923,0,U,69971,999,232,-.55022164E-2,-.2264303E-1,.14315081E-2
CHUANG XIN 26 (CX-26),2026-158A,2026-07-13T12:20:46.071168,14.25122238,.0004887,49.9860,287.5119,294.2352,65.8050,0,U,69972,999,46,-.21871415E-4,-.212E-5,0
CZ-10B DEB,2026-158B,2026-07-13T14:02:35.409120,14.24885997,.0005701,49.9846,287.2193,305.8104,54.2279,0,U,69973,999,47,.11013E-3,.99E-6,0
CZ-10B R/B,2026-158C,2026-07-13T13:30:02.623104,14.64293949,.01979448,49.9631,286.3519,194.8878,164.6170,0,U,69974,999,48,.55130296E-4,.143E-5,0
STARLINK-38024,2026-159A,2026-07-16T06:00:02.000160,15.94616488,.00016165,97.2858,35.9380,76.4760,50.2682,0,U,69975,999,202,-.53602972E-2,-.2002692E-1,.11236365E-2
STARLINK-37993,2026-159B,2026-07-16T06:00:02.000160,15.94759990,.00016535,97.2855,35.9383,77.6566,50.1645,0,U,69976,999,202,-.52343541E-2,-.1970926E-1,.10919182E-2
STARLINK-37995,2026-159C,2026-07-16T06:00:02.000160,15.94912427,.00017954,97.2854,35.9394,73.1567,55.8063,0,U,69977,999,202,-.51473607E-2,-.1954145E-1,.10762256E-2
STARLINK-38057,2026-159D,2026-07-16T06:00:02.000160,15.95068915,.00017816,97.2855,35.9397,73.9215,56.2833,0,U,69978,999,202,-.50531657E-2,-.1934623E-1,.10578461E-2
STARLINK-38063,2026-159E,2026-07-16T06:00:02.000160,15.95227361,.00017235,97.2854,35.9404,76.5068,54.9707,0,U,69979,999,202,-.49586935E-2,-.1914745E-1,.1039257E-2
STARLINK-38093,2026-159F,2026-07-16T06:00:02.000160,15.95389060,.0001719,97.2854,35.9409,77.7242,55.0506,0,U,69980,999,202,-.48854645E-2,-.1902943E-1,.10290379E-2
STARLINK-38050,2026-159G,2026-07-16T06:00:02.000160,15.95536026,.00016845,97.2854,35.9413,75.4342,58.5354,0,U,69981,999,202,-.4798871E-2,-.1884158E-1,.10116341E-2
STARLINK-38065,2026-159H,2026-07-16T06:00:02.000160,15.95691891,.00017429,97.2854,35.9420,75.6478,59.5705,0,U,69982,999,202,-.4737624E-2,-.1875811E-1,.10049255E-2
STARLINK-38077,2026-159J,2026-07-16T06:00:02.000160,15.95843531,.00016282,97.2852,35.9424,75.7067,60.7330,0,U,69983,999,202,-.46719936E-2,-.1865018E-1,.9957293E-3
STARLINK-38068,2026-159K,2026-07-16T06:00:02.000160,15.95972203,.00016322,97.2852,35.9428,79.7182,57.8053,0,U,69984,999,202,-.45797798E-2,-.1841168E-1,.97332323E-3
STARLINK-38089,2026-159L,2026-07-16T06:00:02.000160,15.96128755,.00016235,97.2853,35.9435,79.0715,59.7140,0,U,69985,999,202,-.45317795E-2,-.1837324E-1,.97116429E-3
STARLINK-38073,2026-159M,2026-07-16T06:00:02.000160,15.96265614,.00017196,97.2852,35.9438,74.2578,65.6943,0,U,69986,999,202,-.44601163E-2,-.1821872E-1,.95733006E-3
STARLINK-38099,2026-159N,2026-07-16T06:00:02.000160,15.96400247,.00017098,97.2852,35.9441,74.6292,66.4257,0,U,69987,999,202,-.43987211E-2,-.1810038E-1,.94709554E-3
STARLINK-38064,2026-159P,2026-07-16T06:00:02.000160,15.96675948,.00017428,97.2851,35.9453,71.2827,72.1033,0,U,69988,999,202,-.42647902E-2,-.1781654E-1,.92224128E-3
STARLINK-38080,2026-159Q,2026-07-16T06:00:02.000160,15.96543155,.0001816,97.2850,35.9448,70.9167,71.3263,0,U,69989,999,202,-.43443505E-2,-.1801668E-1,.9403715E-3
STARLINK-38070,2026-159R,2026-07-16T06:00:02.000160,15.96814815,.00016712,97.2849,35.9455,70.6767,73.9107,0,U,69990,999,202,-.42196068E-2,-.1776152E-1,.91830838E-3
STARLINK-38042,2026-159S,2026-07-16T06:00:02.000160,15.96930636,.00017442,97.2849,35.9458,76.4555,69.1413,0,U,69991,999,202,-.41430285E-2,-.17552E-1,.89928422E-3
STARLINK-38071,2026-159T,2026-07-16T06:00:02.000160,15.97058361,.00016667,97.2849,35.9465,74.7873,71.8528,0,U,69992,999,202,-.40896261E-2,-.1744761E-1,.89055285E-3
STARLINK-38082,2026-159U,2026-07-16T06:00:02.000160,15.97174880,.00016599,97.2850,35.9467,75.9492,71.7638,0,U,69993,999,202,-.4024251E-2,-.1728005E-1,.87575301E-3
STARLINK-38090,2026-159V,2026-07-16T06:00:02.000160,15.97309449,.00015989,97.2850,35.9474,76.8582,71.9413,0,U,69994,999,202,-.39936084E-2,-.1727477E-1,.87654246E-3
STARLINK-38084,2026-159W,2026-07-16T06:00:02.000160,15.97438504,.00016476,97.2849,35.9479,74.8211,75.1638,0,U,69995,999,202,-.39380953E-2,-.171568E-1,.86662156E-3
STARLINK-38085,2026-159X,2026-07-16T06:00:02.000160,15.97547603,.00016796,97.2849,35.9484,75.8270,75.1607,0,U,69996,999,202,-.38718468E-2,-.1697155E-1,.85025113E-3
STARLINK-38091,2026-159Y,2026-07-16T06:00:02.000160,15.97678427,.0001682,97.2849,35.9489,71.0319,81.1039,0,U,69997,999,202,-.38313254E-2,-.1691551E-1,.84623535E-3
STARLINK-38086,2026-159Z,2026-07-16T06:00:02.000160,15.97795200,.00016494,97.2849,35.9494,84.2876,68.9203,0,U,69998,999,202,-.37760056E-2,-.1678002E-1,.83470119E-3
