STARLINK-37896          
1 69970U 26157AD  26197.25002315 -.02274544  14437-2 -55317-2 0  9999
2 69970  53.1589 290.2815 0001037  80.2930  29.9118 15.95765534  2321
STARLINK-37922          
1 69971U 26157AE  26197.25002315 -.02264303  14315-2 -55022-2 0  9990
2 69971  53.1589 290.2796 0001077  71.1933  39.8923 15.95780020  2327
CHUANG XIN 26 (CX-26)   
1 69972U 26158A   26194.51442212 -.00000212  00000+0 -21871-4 0  9997
2 69972  49.9860 287.5119 0004887 294.2352  65.8050 14.25122238   462
CZ-10B DEB              
1 69973U 26158B   26194.58513205  .00000099  00000+0  11013-3 0  9993
2 69973  49.9846 287.2193 0005701 305.8104  54.2279 14.24885997   479
CZ-10B R/B              
1 69974U 26158C   26194.56253036  .00000143  00000+0  55130-4 0  9994
2 69974  49.9631 286.3519 0197944 194.8878 164.6170 14.64293949   480
STARLINK-38024          
1 69975U 26159A   26197.25002315 -.02002692  11236-2 -53603-2 0  9999
2 69975  97.2858  35.9380 0001616  76.4760  50.2682 15.94616488  2028
STARLINK-37993          
1 69976U 26159B   26197.25002315 -.01970926  10919-2 -52344-2 0  9991
2 69976  97.2855  35.9383 0001653  77.6566  50.1645 15.94759990  2021
STARLINK-37995          
1 69977U 26159C   26197.25002315 -.01954145  10762-2 -51474-2 0  9996
2 69977  97.2854  35.9394 0001795  73.1567  55.8063 15.94912427  2024
STARLINK-38057          
1 69978U 26159D   26197.25002315 -.01934623  10578-2 -50532-2 0  9995
2 69978  97.2855  35.9397 0001781  73.9215  56.2833 15.95068915  2027
STARLINK-38063          
1 69979U 26159E   26197.25002315 -.01914745  10393-2 -49587-2 0  9992
2 69979  97.2854  35.9404 0001723  76.5068  54.9707 15.95227361  2024
STARLINK-38093          
1 69980U 26159F   26197.25002315 -.01902943  10290-2 -48855-2 0  9994
2 69980  97.2854  35.9409 0001719  77.7242  55.0506 15.95389060  2027
STARLINK-38050          
1 69981U 26159G   26197.25002315 -.01884158  10116-2 -47989-2 0  9996
2 69981  97.2854  35.9413 0001684  75.4342  58.5354 15.95536026  2025
STARLINK-38065          
1 69982U 26159H   26197.25002315 -.01875811  10049-2 -47376-2 0  9998
2 69982  97.2854  35.9420 0001742  75.6478  59.5705 15.95691891  2024
STARLINK-38077          
1 69983U 26159J   26197.25002315 -.01865018  99573-3 -46720-2 0  9999
2 69983  97.2852  35.9424 0001628  75.7067  60.7330 15.95843531  2023
STARLINK-38068          
1 69984U 26159K   26197.25002315 -.01841168  97332-3 -45798-2 0  9995
2 69984  97.2852  35.9428 0001632  79.7182  57.8053 15.95972203  2023
STARLINK-38089          
1 69985U 26159L   26197.25002315 -.01837324  97116-3 -45318-2 0  9993
2 69985  97.2853  35.9435 0001623  79.0715  59.7140 15.96128755  2022
STARLINK-38073          
1 69986U 26159M   26197.25002315 -.01821872  95733-3 -44601-2 0  9992
2 69986  97.2852  35.9438 0001719  74.2578  65.6943 15.96265614  2028
STARLINK-38099          
1 69987U 26159N   26197.25002315 -.01810038  94710-3 -43987-2 0  9995
2 69987  97.2852  35.9441 0001709  74.6292  66.4257 15.96400247  2029
STARLINK-38064          
1 69988U 26159P   26197.25002315 -.01781654  92224-3 -42648-2 0  9998
2 69988  97.2851  35.9453 0001742  71.2827  72.1033 15.96675948  2024
STARLINK-38080          
1 69989U 26159Q   26197.25002315 -.01801668  94037-3 -43444-2 0  9996
2 69989  97.2850  35.9448 0001816  70.9167  71.3263 15.96543155  2023
STARLINK-38070          
1 69990U 26159R   26197.25002315 -.01776152  91831-3 -42196-2 0  9999
2 69990  97.2849  35.9455 0001671  70.6767  73.9107 15.96814815  2022
STARLINK-38042          
1 69991U 26159S   26197.25002315 -.01755200  89928-3 -41430-2 0  9995
2 69991  97.2849  35.9458 0001744  76.4555  69.1413 15.96930636  2023
STARLINK-38071          
1 69992U 26159T   26197.25002315 -.01744761  89055-3 -40896-2 0  9992
2 69992  97.2849  35.9465 0001666  74.7873  71.8528 15.97058361  2023
STARLINK-38082          
1 69993U 26159U   26197.25002315 -.01728005  87575-3 -40243-2 0  9997
2 69993  97.2850  35.9467 0001659  75.9492  71.7638 15.97174880  2026
STARLINK-38090          
1 69994U 26159V   26197.25002315 -.01727477  87654-3 -39936-2 0  9995
2 69994  97.2850  35.9474 0001598  76.8582  71.9413 15.97309449  2021
STARLINK-38084          
1 69995U 26159W   26197.25002315 -.01715680  86662-3 -39381-2 0  9991
2 69995  97.2849  35.9479 0001647  74.8211  75.1638 15.97438504  2027
STARLINK-38085          
1 69996U 26159X   26197.25002315 -.01697155  85025-3 -38718-2 0  9993
2 69996  97.2849  35.9484 0001679  75.8270  75.1607 15.97547603  2022
STARLINK-38091          
1 69997U 26159Y   26197.25002315 -.01691551  84624-3 -38313-2 0  9993
2 69997  97.2849  35.9489 0001682  71.0319  81.1039 15.97678427  2029
STARLINK-38086          
1 69998U 26159Z   26197.25002315 -.01678002  83470-3 -37760-2 0  9993
2 69998  97.2849  35.9494 0001649  84.2876  68.9203 15.97795200  2028
